{
  "links" : {
    "next" : "https://api.nasa.gov/neo/rest/v1/feed?start_date=1998-11-16&end_date=1998-11-16&detailed=true&api_key=t0TVs3DtDT2H8Oy2Zy8m2eVrNsAVKAexjcZXUckd",
    "prev" : "https://api.nasa.gov/neo/rest/v1/feed?start_date=1998-11-14&end_date=1998-11-14&detailed=true&api_key=t0TVs3DtDT2H8Oy2Zy8m2eVrNsAVKAexjcZXUckd",
    "self" : "https://api.nasa.gov/neo/rest/v1/feed?start_date=1998-11-15&end_date=1998-11-15&detailed=true&api_key=t0TVs3DtDT2H8Oy2Zy8m2eVrNsAVKAexjcZXUckd"
  },
  "element_count" : 2,
  "near_earth_objects" : {
    "1998-11-15" : [ {
      "links" : {
        "self" : "https://api.nasa.gov/neo/rest/v1/neo/3553169?api_key=t0TVs3DtDT2H8Oy2Zy8m2eVrNsAVKAexjcZXUckd"
      },
      "neo_reference_id" : "3553169",
      "name" : "(2010 XC15)",
      "nasa_jpl_url" : "http://ssd.jpl.nasa.gov/sbdb.cgi?sstr=3553169",
      "absolute_magnitude_h" : 21.4,
      "estimated_diameter" : {
        "kilometers" : {
          "estimated_diameter_min" : 0.1394938229,
          "estimated_diameter_max" : 0.3119176705
        },
        "meters" : {
          "estimated_diameter_min" : 139.4938229344,
          "estimated_diameter_max" : 311.9176705226
        },
        "miles" : {
          "estimated_diameter_min" : 0.0866774163,
          "estimated_diameter_max" : 0.1938165949
        },
        "feet" : {
          "estimated_diameter_min" : 457.6569140361,
          "estimated_diameter_max" : 1023.3519701574
        }
      },
      "is_potentially_hazardous_asteroid" : true,
      "close_approach_data" : [ {
        "close_approach_date" : "1998-11-15",
        "epoch_date_close_approach" : 911116800000,
        "relative_velocity" : {
          "kilometers_per_second" : "10.1675729448",
          "kilometers_per_hour" : "36603.2626011115",
          "miles_per_hour" : "22743.8439201184"
        },
        "miss_distance" : {
          "astronomical" : "0.1046483039",
          "lunar" : "40.708190918",
          "kilometers" : "15655164",
          "miles" : "9727668"
        },
        "orbiting_body" : "Earth"
      } ],
      "orbital_data" : {
        "orbit_id" : "27",
        "orbit_determination_date" : "2017-04-06 08:55:18",
        "orbit_uncertainty" : "1",
        "minimum_orbit_intersection" : ".00291055",
        "jupiter_tisserand_invariant" : "7.755",
        "epoch_osculation" : "2458000.5",
        "eccentricity" : ".4166040114071096",
        "semi_major_axis" : ".7350711596983732",
        "inclination" : "8.383786680179842",
        "ascending_node_longitude" : "94.4816341546202",
        "orbital_period" : "230.1932064248605",
        "perihelion_distance" : ".4288375658983548",
        "perihelion_argument" : "157.6342368677722",
        "aphelion_distance" : "1.041304753498392",
        "perihelion_time" : "2457952.711311364046",
        "mean_anomaly" : "74.7369054723134",
        "mean_motion" : "1.563903668536416",
        "equinox" : "J2000"
      }
    }, {
      "links" : {
        "self" : "https://api.nasa.gov/neo/rest/v1/neo/3773650?api_key=t0TVs3DtDT2H8Oy2Zy8m2eVrNsAVKAexjcZXUckd"
      },
      "neo_reference_id" : "3773650",
      "name" : "(2017 FH128)",
      "nasa_jpl_url" : "http://ssd.jpl.nasa.gov/sbdb.cgi?sstr=3773650",
      "absolute_magnitude_h" : 21.494,
      "estimated_diameter" : {
        "kilometers" : {
          "estimated_diameter_min" : 0.1335841639,
          "estimated_diameter_max" : 0.2987032712
        },
        "meters" : {
          "estimated_diameter_min" : 133.5841639131,
          "estimated_diameter_max" : 298.7032712272
        },
        "miles" : {
          "estimated_diameter_min" : 0.0830053255,
          "estimated_diameter_max" : 0.1856055503
        },
        "feet" : {
          "estimated_diameter_min" : 438.2682683328,
          "estimated_diameter_max" : 979.9976403732
        }
      },
      "is_potentially_hazardous_asteroid" : false,
      "close_approach_data" : [ {
        "close_approach_date" : "1998-11-15",
        "epoch_date_close_approach" : 911116800000,
        "relative_velocity" : {
          "kilometers_per_second" : "12.2020930834",
          "kilometers_per_hour" : "43927.5351002108",
          "miles_per_hour" : "27294.8620182393"
        },
        "miss_distance" : {
          "astronomical" : "0.3945835075",
          "lunar" : "153.492980957",
          "kilometers" : "59028852",
          "miles" : "36678828"
        },
        "orbiting_body" : "Earth"
      } ],
      "orbital_data" : {
        "orbit_id" : "9",
        "orbit_determination_date" : "2017-05-13 06:43:11",
        "orbit_uncertainty" : "5",
        "minimum_orbit_intersection" : ".0739088",
        "jupiter_tisserand_invariant" : "6.696",
        "epoch_osculation" : "2458000.5",
        "eccentricity" : ".3838850579102436",
        "semi_major_axis" : ".8740622180160318",
        "inclination" : "10.8683759590036",
        "ascending_node_longitude" : "100.3027572519904",
        "orbital_period" : "298.4777407624754",
        "perihelion_distance" : ".5385227928357914",
        "perihelion_argument" : "257.1689856660798",
        "aphelion_distance" : "1.209601643196272",
        "perihelion_time" : "2457968.782320913114",
        "mean_anomaly" : "38.2553300025332",
        "mean_motion" : "1.206120091502847",
        "equinox" : "J2000"
      }
    } ]
  }
}